start=new Date('2023-01-16T00:00:00.000Z').valueOf();
sats=[{"RCS_SIZE":"LARGE","REV_AT_EPOCH":"9191","NORAD_CAT_ID":"48566","MEAN_ANOMALY":"220.6421","CENTER_NAME":"EARTH","MEAN_ELEMENT_THEORY":"SGP4","TLE_LINE1":"1 48566U 21041P   23015.91422321  .00007930  00000-0  55022-3 0  9998","RA_OF_ASC_NODE":"258.6489","SITE":"AFETR","BSTAR":"0.00055022000000","PERIAPSIS":"546.146","INCLINATION":"53.0513","GP_ID":"223147934","TIME_SYSTEM":"UTC","FILE":"3748322","APOAPSIS":"548.104","OBJECT_ID":"2021-041P","EPOCH":"2023-01-15T21:56:28.885344","ECCENTRICITY":"0.00014140","OBJECT_TYPE":"PAYLOAD","MEAN_MOTION_DDOT":"0.0000000000000","MEAN_MOTION":"15.06428873","ELEMENT_SET_NO":"999","COUNTRY_CODE":"US","SEMIMAJOR_AXIS":"6925.260","PERIOD":"95.590","REF_FRAME":"TEME","CLASSIFICATION_TYPE":"U","EPHEMERIS_TYPE":"0","TLE_LINE2":"2 48566  53.0513 258.6489 0001414 139.4673 220.6421 15.06428873 91914","DECAY_DATE":null,"MEAN_MOTION_DOT":"0.00007930","ARG_OF_PERICENTER":"139.4673","LAUNCH_DATE":"2021-05-15","OBJECT_NAME":"STARLINK-2214"},{"EPHEMERIS_TYPE":"0","CLASSIFICATION_TYPE":"U","TLE_LINE2":"2 48567  53.0501 258.6124 0001108  92.9429 267.1686 15.06408296 91916","ARG_OF_PERICENTER":"92.9429","MEAN_MOTION_DOT":"0.00006177","DECAY_DATE":null,"OBJECT_NAME":"STARLINK-2215","LAUNCH_DATE":"2021-05-15","OBJECT_TYPE":"PAYLOAD","MEAN_MOTION_DDOT":"0.0000000000000","ECCENTRICITY":"0.00011080","ELEMENT_SET_NO":"999","MEAN_MOTION":"15.06408296","COUNTRY_CODE":"US","PERIOD":"95.592","SEMIMAJOR_AXIS":"6925.323","REF_FRAME":"TEME","INCLINATION":"53.0501","PERIAPSIS":"546.421","TIME_SYSTEM":"UTC","GP_ID":"223146684","FILE":"3748322","APOAPSIS":"547.955","OBJECT_ID":"2021-041Q","EPOCH":"2023-01-15T22:17:45.169728","RCS_SIZE":"LARGE","MEAN_ANOMALY":"267.1686","NORAD_CAT_ID":"48567","REV_AT_EPOCH":"9191","TLE_LINE1":"1 48567U 21041Q   23015.92899502  .00006177  00000-0  43309-3 0  9996","RA_OF_ASC_NODE":"258.6124","SITE":"AFETR","MEAN_ELEMENT_THEORY":"SGP4","CENTER_NAME":"EARTH","BSTAR":"0.00043309000000"},{"SEMIMAJOR_AXIS":"6925.313","COUNTRY_CODE":"US","PERIOD":"95.591","REF_FRAME":"TEME","ECCENTRICITY":"0.00014450","OBJECT_TYPE":"PAYLOAD","MEAN_MOTION_DDOT":"0.0000000000000","ELEMENT_SET_NO":"999","MEAN_MOTION":"15.06411527","ARG_OF_PERICENTER":"104.7538","MEAN_MOTION_DOT":"0.00014157","DECAY_DATE":null,"LAUNCH_DATE":"2021-05-15","OBJECT_NAME":"STARLINK-2217","EPHEMERIS_TYPE":"0","CLASSIFICATION_TYPE":"U","TLE_LINE2":"2 48568  53.0536 248.5601 0001445 104.7538 255.3611 15.06411527 92054","SITE":"AFETR","TLE_LINE1":"1 48568U 21041R   23015.94096714  .00014157  00000-0  96706-3 0  9999","RA_OF_ASC_NODE":"248.5601","CENTER_NAME":"EARTH","MEAN_ELEMENT_THEORY":"SGP4","BSTAR":"0.00096706000000","RCS_SIZE":"LARGE","NORAD_CAT_ID":"48568","MEAN_ANOMALY":"255.3611","REV_AT_EPOCH":"9205","FILE":"3748322","APOAPSIS":"548.179","OBJECT_ID":"2021-041R","EPOCH":"2023-01-15T22:34:59.560896","PERIAPSIS":"546.178","INCLINATION":"53.0536","TIME_SYSTEM":"UTC","GP_ID":"223146934"},{"RA_OF_ASC_NODE":"248.7243","TLE_LINE1":"1 48569U 21041S   23015.90042296  .00012467  00000-0  85415-3 0  9999","SITE":"AFETR","MEAN_ELEMENT_THEORY":"SGP4","CENTER_NAME":"EARTH","BSTAR":"0.00085415000000","RCS_SIZE":"LARGE","MEAN_ANOMALY":"277.4560","NORAD_CAT_ID":"48569","REV_AT_EPOCH":"9205","FILE":"3748322","APOAPSIS":"548.089","OBJECT_ID":"2021-041S","EPOCH":"2023-01-15T21:36:36.543744","INCLINATION":"53.0525","PERIAPSIS":"546.279","TIME_SYSTEM":"UTC","GP_ID":"223148185","COUNTRY_CODE":"US","SEMIMAJOR_AXIS":"6925.319","PERIOD":"95.592","REF_FRAME":"TEME","MEAN_MOTION_DDOT":"0.0000000000000","OBJECT_TYPE":"PAYLOAD","ECCENTRICITY":"0.00013070","ELEMENT_SET_NO":"999","MEAN_MOTION":"15.06409663","ARG_OF_PERICENTER":"82.6578","MEAN_MOTION_DOT":"0.00012467","DECAY_DATE":null,"OBJECT_NAME":"STARLINK-2219","LAUNCH_DATE":"2021-05-15","EPHEMERIS_TYPE":"0","CLASSIFICATION_TYPE":"U","TLE_LINE2":"2 48569  53.0525 248.7243 0001307  82.6578 277.4560 15.06409663 92058"},{"GP_ID":"223148434","TIME_SYSTEM":"UTC","INCLINATION":"53.0513","PERIAPSIS":"546.342","APOAPSIS":"547.955","OBJECT_ID":"2021-041T","EPOCH":"2023-01-15T22:54:53.611488","FILE":"3748322","REV_AT_EPOCH":"9191","MEAN_ANOMALY":"249.4788","NORAD_CAT_ID":"48570","RCS_SIZE":"LARGE","BSTAR":"0.00209570000000","MEAN_ELEMENT_THEORY":"SGP4","CENTER_NAME":"EARTH","SITE":"AFETR","TLE_LINE1":"1 48570U 21041T   23015.95478717  .00031090  00000-0  20957-2 0  9999","RA_OF_ASC_NODE":"258.4991","TLE_LINE2":"2 48570  53.0513 258.4991 0001165 110.6325 249.4788 15.06421224 91911","CLASSIFICATION_TYPE":"U","EPHEMERIS_TYPE":"0","OBJECT_NAME":"STARLINK-2220","LAUNCH_DATE":"2021-05-15","DECAY_DATE":null,"MEAN_MOTION_DOT":"0.00031090","ARG_OF_PERICENTER":"110.6325","MEAN_MOTION":"15.06421224","ELEMENT_SET_NO":"999","OBJECT_TYPE":"PAYLOAD","MEAN_MOTION_DDOT":"0.0000000000000","ECCENTRICITY":"0.00011650","REF_FRAME":"TEME","COUNTRY_CODE":"US","SEMIMAJOR_AXIS":"6925.284","PERIOD":"95.591"},{"MEAN_ANOMALY":"265.2375","NORAD_CAT_ID":"48571","REV_AT_EPOCH":"9191","RCS_SIZE":"LARGE","BSTAR":"0.00112170000000","TLE_LINE1":"1 48571U 21041U   23015.89579978  .00016481  00000-0  11217-2 0  9990","SITE":"AFETR","RA_OF_ASC_NODE":"258.7579","MEAN_ELEMENT_THEORY":"SGP4","CENTER_NAME":"EARTH","TIME_SYSTEM":"UTC","GP_ID":"223147184","INCLINATION":"53.0527","PERIAPSIS":"545.924","EPOCH":"2023-01-15T21:29:57.100992","APOAPSIS":"548.293","OBJECT_ID":"2021-041U","FILE":"3748322","ELEMENT_SET_NO":"999","MEAN_MOTION":"15.06434219","MEAN_MOTION_DDOT":"0.0000000000000","OBJECT_TYPE":"PAYLOAD","ECCENTRICITY":"0.00017100","REF_FRAME":"TEME","SEMIMAJOR_AXIS":"6925.244","COUNTRY_CODE":"US","PERIOD":"95.590","TLE_LINE2":"2 48571  53.0527 258.7579 0001710  94.8809 265.2375 15.06434219 91914","EPHEMERIS_TYPE":"0","CLASSIFICATION_TYPE":"U","OBJECT_NAME":"STARLINK-2221","LAUNCH_DATE":"2021-05-15","ARG_OF_PERICENTER":"94.8809","MEAN_MOTION_DOT":"0.00016481","DECAY_DATE":null},{"COUNTRY_CODE":"US","SEMIMAJOR_AXIS":"6925.320","PERIOD":"95.592","REF_FRAME":"TEME","MEAN_MOTION_DDOT":"0.0000000000000","OBJECT_TYPE":"PAYLOAD","ECCENTRICITY":"0.00012960","MEAN_MOTION":"15.06409444","ELEMENT_SET_NO":"999","DECAY_DATE":null,"MEAN_MOTION_DOT":"0.00003963","ARG_OF_PERICENTER":"83.5473","OBJECT_NAME":"STARLINK-2222","LAUNCH_DATE":"2021-05-15","CLASSIFICATION_TYPE":"U","EPHEMERIS_TYPE":"0","TLE_LINE2":"2 48572  53.0527 258.4768 0001296  83.5473 276.5664 15.06409444 91922","MEAN_ELEMENT_THEORY":"SGP4","CENTER_NAME":"EARTH","TLE_LINE1":"1 48572U 21041V   23015.95847297  .00003963  00000-0  28474-3 0  9995","SITE":"AFETR","RA_OF_ASC_NODE":"258.4768","BSTAR":"0.00028474000000","RCS_SIZE":"LARGE","REV_AT_EPOCH":"9192","MEAN_ANOMALY":"276.5664","NORAD_CAT_ID":"48572","FILE":"3748322","APOAPSIS":"548.082","OBJECT_ID":"2021-041V","EPOCH":"2023-01-15T23:00:12.064608","INCLINATION":"53.0527","PERIAPSIS":"546.287","GP_ID":"223147434","TIME_SYSTEM":"UTC"},{"MEAN_ANOMALY":"269.3459","NORAD_CAT_ID":"48573","REV_AT_EPOCH":"9205","RCS_SIZE":"LARGE","BSTAR":"0.00123370000000","TLE_LINE1":"1 48573U 21041W   23015.93726007  .00018159  00000-0  12337-2 0  9992","RA_OF_ASC_NODE":"248.5690","SITE":"AFETR","MEAN_ELEMENT_THEORY":"SGP4","CENTER_NAME":"EARTH","TIME_SYSTEM":"UTC","GP_ID":"223147686","INCLINATION":"53.0542","PERIAPSIS":"546.214","APOAPSIS":"548.007","EPOCH":"2023-01-15T22:29:39.270048","OBJECT_ID":"2021-041W","FILE":"3748322","ELEMENT_SET_NO":"999","MEAN_MOTION":"15.06433588","OBJECT_TYPE":"PAYLOAD","MEAN_MOTION_DDOT":"0.0000000000000","ECCENTRICITY":"0.00012940","REF_FRAME":"TEME","COUNTRY_CODE":"US","PERIOD":"95.590","SEMIMAJOR_AXIS":"6925.246","TLE_LINE2":"2 48573  53.0542 248.5690 0001294  90.7679 269.3459 15.06433588 92053","EPHEMERIS_TYPE":"0","CLASSIFICATION_TYPE":"U","OBJECT_NAME":"STARLINK-2224","LAUNCH_DATE":"2021-05-15","MEAN_MOTION_DOT":"0.00018159","ARG_OF_PERICENTER":"90.7679","DECAY_DATE":null},{"TLE_LINE1":"1 48574U 21041X   23015.84053782  .00000933  00000-0  81537-4 0  9997","SITE":"AFETR","RA_OF_ASC_NODE":"219.1000","CENTER_NAME":"EARTH","MEAN_ELEMENT_THEORY":"SGP4","BSTAR":"0.00008153700000","RCS_SIZE":"LARGE","NORAD_CAT_ID":"48574","MEAN_ANOMALY":"284.6113","REV_AT_EPOCH":"9246","FILE":"3748322","EPOCH":"2023-01-15T20:10:22.467648","APOAPSIS":"548.263","OBJECT_ID":"2021-041X","PERIAPSIS":"546.171","INCLINATION":"53.0524","TIME_SYSTEM":"UTC","GP_ID":"223147935","COUNTRY_CODE":"US","PERIOD":"95.592","SEMIMAJOR_AXIS":"6925.352","REF_FRAME":"TEME","ECCENTRICITY":"0.00015100","MEAN_MOTION_DDOT":"0.0000000000000","OBJECT_TYPE":"PAYLOAD","ELEMENT_SET_NO":"999","MEAN_MOTION":"15.06398826","MEAN_MOTION_DOT":"0.00000933","ARG_OF_PERICENTER":"75.5043","DECAY_DATE":null,"LAUNCH_DATE":"2021-05-15","OBJECT_NAME":"STARLINK-2225","EPHEMERIS_TYPE":"0","CLASSIFICATION_TYPE":"U","TLE_LINE2":"2 48574  53.0524 219.1000 0001510  75.5043 284.6113 15.06398826 92467"},{"SITE":"AFETR","TLE_LINE1":"1 48575U 21041Y   23015.85623258  .00004595  00000-0  32718-3 0  9994","RA_OF_ASC_NODE":"209.2379","MEAN_ELEMENT_THEORY":"SGP4","CENTER_NAME":"EARTH","BSTAR":"0.00032718000000","RCS_SIZE":"LARGE","MEAN_ANOMALY":"279.2809","NORAD_CAT_ID":"48575","REV_AT_EPOCH":"9261","FILE":"3748322","APOAPSIS":"548.259","OBJECT_ID":"2021-041Y","EPOCH":"2023-01-15T20:32:58.494912","INCLINATION":"53.0542","PERIAPSIS":"546.166","TIME_SYSTEM":"UTC","GP_ID":"223146685","COUNTRY_CODE":"US","PERIOD":"95.592","SEMIMAJOR_AXIS":"6925.347","REF_FRAME":"TEME","MEAN_MOTION_DDOT":"0.0000000000000","OBJECT_TYPE":"PAYLOAD","ECCENTRICITY":"0.00015110","ELEMENT_SET_NO":"999","MEAN_MOTION":"15.06400407","ARG_OF_PERICENTER":"80.8351","MEAN_MOTION_DOT":"0.00004595","DECAY_DATE":null,"OBJECT_NAME":"STARLINK-2227","LAUNCH_DATE":"2021-05-15","EPHEMERIS_TYPE":"0","CLASSIFICATION_TYPE":"U","TLE_LINE2":"2 48575  53.0542 209.2379 0001511  80.8351 279.2809 15.06400407 92617"}];
